STARLINK-36344          
1 67710U 26025T   26057.89194765  .00001538  00000+0  87763-5 0  9997
2 67710  97.2840 168.9831 0001243 129.6608 230.4770 15.80798429  4258
STARLINK-36687          
1 67711U 26025U   26057.91668981 -.00164492  00000+0 -87156-3 0  9992
2 67711  97.2852 169.0144 0001260  93.0324  59.1412 15.80883986  4284
STARLINK-36705          
1 67712U 26025V   26057.91668981 -.00226182  00000+0 -15485-2 0  9993
2 67712  97.2821 169.0136 0001756  63.7921  90.8596 15.75299776  4185
STARLINK-36708          
1 67713U 26025W   26057.91668981 -.00031815  00000+0 -16558-3 0  9994
2 67713  97.2857 169.0390 0001464 112.1893 101.0171 15.80864995  4181
STARLINK-36702          
1 67714U 26025X   26057.91668981 -.00015769  00000+0 -81647-4 0  9997
2 67714  97.2858 169.0346 0001502 102.1690 100.3751 15.80838167  3919
STARLINK-36718          
1 67715U 26025Y   26057.91668981 -.00016892  00000+0 -87585-4 0  9993
2 67715  97.2856 169.0498 0001405 125.2196 112.4191 15.80822957  4121
STARLINK-36715          
1 67716U 26025Z   26057.91668981 -.00114684  00000+0 -60450-3 0  9993
2 67716  97.2855 169.0444 0001637 101.2718 124.6194 15.80864418  4185
STARLINK-36385          
1 67717U 26025AA  26057.91668981 -.00019208  00000+0 -99683-4 0  9991
2 67717  97.2854 169.0301 0001760 122.1429  68.1927 15.80830528  4186
CZ-2F DEB               
1 67718U 26024E   26057.91597153  .00204961  00000+0  38516-2 0  9999
2 67718  50.3169  71.4702 0247286 237.6953 119.9839 15.20667662  2991
CZ-2F DEB               
1 67719U 26024F   26057.90341544  .00142536  00000+0  35316-2 0  9994
2 67719  49.7916  73.7147 0322936 228.2534 129.0385 15.00229367  2621
CZ-2F DEB               
1 67720U 26024G   26057.87182538  .00139861  00000+0  35585-2 0  9993
2 67720  49.8310  74.2807 0333642 224.4489 132.9235 14.97569040  2935
STARLINK-36772          
1 67721U 26026A   26042.75317130 -.00000725  22934-5  00000+0 0  9999
2 67721  97.2800  95.5280 0003400 259.0800  81.2200 16.07750770    15
