CCSDS_OMM_VERS = 2.0
CREATION_DATE  = 
ORIGINATOR     = 

OBJECT_NAME    = STARLINK-36344
OBJECT_ID      = 2026-025T
CENTER_NAME    = EARTH
REF_FRAME      = TEME
TIME_SYSTEM    = UTC
MEAN_ELEMENT_THEORY = SGP/SGP4

EPOCH          = 2026-02-26T21:24:24.276960
MEAN_MOTION    = 15.80798429
ECCENTRICITY   = .00012435
INCLINATION    = 97.2840
RA_OF_ASC_NODE = 168.9831
ARG_OF_PERICENTER = 129.6608
MEAN_ANOMALY   = 230.4770

EPHEMERIS_TYPE = 0
CLASSIFICATION_TYPE = U
NORAD_CAT_ID   = 67710
ELEMENT_SET_NO = 999
REV_AT_EPOCH   = 425
BSTAR          = .8776347E-5
MEAN_MOTION_DOT = .1538E-4
MEAN_MOTION_DDOT = 0

CCSDS_OMM_VERS = 2.0
CREATION_DATE  = 
ORIGINATOR     = 

OBJECT_NAME    = STARLINK-36687
OBJECT_ID      = 2026-025U
CENTER_NAME    = EARTH
REF_FRAME      = TEME
TIME_SYSTEM    = UTC
MEAN_ELEMENT_THEORY = SGP/SGP4

EPOCH          = 2026-02-26T22:00:01.999584
MEAN_MOTION    = 15.80883986
ECCENTRICITY   = .00012604
INCLINATION    = 97.2852
RA_OF_ASC_NODE = 169.0144
ARG_OF_PERICENTER = 93.0324
MEAN_ANOMALY   = 59.1412

EPHEMERIS_TYPE = 0
CLASSIFICATION_TYPE = U
NORAD_CAT_ID   = 67711
ELEMENT_SET_NO = 999
REV_AT_EPOCH   = 428
BSTAR          = -.87155614E-3
MEAN_MOTION_DOT = -.164492E-2
MEAN_MOTION_DDOT = 0

CCSDS_OMM_VERS = 2.0
CREATION_DATE  = 
ORIGINATOR     = 

OBJECT_NAME    = STARLINK-36705
OBJECT_ID      = 2026-025V
CENTER_NAME    = EARTH
REF_FRAME      = TEME
TIME_SYSTEM    = UTC
MEAN_ELEMENT_THEORY = SGP/SGP4

EPOCH          = 2026-02-26T22:00:01.999584
MEAN_MOTION    = 15.75299776
ECCENTRICITY   = .00017562
INCLINATION    = 97.2821
RA_OF_ASC_NODE = 169.0136
ARG_OF_PERICENTER = 63.7921
MEAN_ANOMALY   = 90.8596

EPHEMERIS_TYPE = 0
CLASSIFICATION_TYPE = U
NORAD_CAT_ID   = 67712
ELEMENT_SET_NO = 999
REV_AT_EPOCH   = 418
BSTAR          = -.15484613E-2
MEAN_MOTION_DOT = -.226182E-2
MEAN_MOTION_DDOT = 0

CCSDS_OMM_VERS = 2.0
CREATION_DATE  = 
ORIGINATOR     = 

OBJECT_NAME    = STARLINK-36708
OBJECT_ID      = 2026-025W
CENTER_NAME    = EARTH
REF_FRAME      = TEME
TIME_SYSTEM    = UTC
MEAN_ELEMENT_THEORY = SGP/SGP4

EPOCH          = 2026-02-26T22:00:01.999584
MEAN_MOTION    = 15.80864995
ECCENTRICITY   = .00014642
INCLINATION    = 97.2857
RA_OF_ASC_NODE = 169.0390
ARG_OF_PERICENTER = 112.1893
MEAN_ANOMALY   = 101.0171

EPHEMERIS_TYPE = 0
CLASSIFICATION_TYPE = U
NORAD_CAT_ID   = 67713
ELEMENT_SET_NO = 999
REV_AT_EPOCH   = 418
BSTAR          = -.16558212E-3
MEAN_MOTION_DOT = -.31815E-3
MEAN_MOTION_DDOT = 0

CCSDS_OMM_VERS = 2.0
CREATION_DATE  = 
ORIGINATOR     = 

OBJECT_NAME    = STARLINK-36702
OBJECT_ID      = 2026-025X
CENTER_NAME    = EARTH
REF_FRAME      = TEME
TIME_SYSTEM    = UTC
MEAN_ELEMENT_THEORY = SGP/SGP4

EPOCH          = 2026-02-26T22:00:01.999584
MEAN_MOTION    = 15.80838167
ECCENTRICITY   = .00015021
INCLINATION    = 97.2858
RA_OF_ASC_NODE = 169.0346
ARG_OF_PERICENTER = 102.1690
MEAN_ANOMALY   = 100.3751

EPHEMERIS_TYPE = 0
CLASSIFICATION_TYPE = U
NORAD_CAT_ID   = 67714
ELEMENT_SET_NO = 999
REV_AT_EPOCH   = 391
BSTAR          = -.81647369E-4
MEAN_MOTION_DOT = -.15769E-3
MEAN_MOTION_DDOT = 0

CCSDS_OMM_VERS = 2.0
CREATION_DATE  = 
ORIGINATOR     = 

OBJECT_NAME    = STARLINK-36718
OBJECT_ID      = 2026-025Y
CENTER_NAME    = EARTH
REF_FRAME      = TEME
TIME_SYSTEM    = UTC
MEAN_ELEMENT_THEORY = SGP/SGP4

EPOCH          = 2026-02-26T22:00:01.999584
MEAN_MOTION    = 15.80822957
ECCENTRICITY   = .00014055
INCLINATION    = 97.2856
RA_OF_ASC_NODE = 169.0498
ARG_OF_PERICENTER = 125.2196
MEAN_ANOMALY   = 112.4191

EPHEMERIS_TYPE = 0
CLASSIFICATION_TYPE = U
NORAD_CAT_ID   = 67715
ELEMENT_SET_NO = 999
REV_AT_EPOCH   = 412
BSTAR          = -.87584904E-4
MEAN_MOTION_DOT = -.16892E-3
MEAN_MOTION_DDOT = 0

CCSDS_OMM_VERS = 2.0
CREATION_DATE  = 
ORIGINATOR     = 

OBJECT_NAME    = STARLINK-36715
OBJECT_ID      = 2026-025Z
CENTER_NAME    = EARTH
REF_FRAME      = TEME
TIME_SYSTEM    = UTC
MEAN_ELEMENT_THEORY = SGP/SGP4

EPOCH          = 2026-02-26T22:00:01.999584
MEAN_MOTION    = 15.80864418
ECCENTRICITY   = .00016379
INCLINATION    = 97.2855
RA_OF_ASC_NODE = 169.0444
ARG_OF_PERICENTER = 101.2718
MEAN_ANOMALY   = 124.6194

EPHEMERIS_TYPE = 0
CLASSIFICATION_TYPE = U
NORAD_CAT_ID   = 67716
ELEMENT_SET_NO = 999
REV_AT_EPOCH   = 418
BSTAR          = -.6044953E-3
MEAN_MOTION_DOT = -.114684E-2
MEAN_MOTION_DDOT = 0

CCSDS_OMM_VERS = 2.0
CREATION_DATE  = 
ORIGINATOR     = 

OBJECT_NAME    = STARLINK-36385
OBJECT_ID      = 2026-025AA
CENTER_NAME    = EARTH
REF_FRAME      = TEME
TIME_SYSTEM    = UTC
MEAN_ELEMENT_THEORY = SGP/SGP4

EPOCH          = 2026-02-26T22:00:01.999584
MEAN_MOTION    = 15.80830528
ECCENTRICITY   = .00017603
INCLINATION    = 97.2854
RA_OF_ASC_NODE = 169.0301
ARG_OF_PERICENTER = 122.1429
MEAN_ANOMALY   = 68.1927

EPHEMERIS_TYPE = 0
CLASSIFICATION_TYPE = U
NORAD_CAT_ID   = 67717
ELEMENT_SET_NO = 999
REV_AT_EPOCH   = 418
BSTAR          = -.99683195E-4
MEAN_MOTION_DOT = -.19208E-3
MEAN_MOTION_DDOT = 0

CCSDS_OMM_VERS = 2.0
CREATION_DATE  = 
ORIGINATOR     = 

OBJECT_NAME    = CZ-2F DEB
OBJECT_ID      = 2026-024E
CENTER_NAME    = EARTH
REF_FRAME      = TEME
TIME_SYSTEM    = UTC
MEAN_ELEMENT_THEORY = SGP/SGP4

EPOCH          = 2026-02-26T21:58:59.940192
MEAN_MOTION    = 15.20667662
ECCENTRICITY   = .02472869
INCLINATION    = 50.3169
RA_OF_ASC_NODE = 71.4702
ARG_OF_PERICENTER = 237.6953
MEAN_ANOMALY   = 119.9839

EPHEMERIS_TYPE = 0
CLASSIFICATION_TYPE = U
NORAD_CAT_ID   = 67718
ELEMENT_SET_NO = 999
REV_AT_EPOCH   = 299
BSTAR          = .38516179E-2
MEAN_MOTION_DOT = .204961E-2
MEAN_MOTION_DDOT = 0

CCSDS_OMM_VERS = 2.0
CREATION_DATE  = 
ORIGINATOR     = 

OBJECT_NAME    = CZ-2F DEB
OBJECT_ID      = 2026-024F
CENTER_NAME    = EARTH
REF_FRAME      = TEME
TIME_SYSTEM    = UTC
MEAN_ELEMENT_THEORY = SGP/SGP4

EPOCH          = 2026-02-26T21:40:55.094016
MEAN_MOTION    = 15.00229367
ECCENTRICITY   = .03229363
INCLINATION    = 49.7916
RA_OF_ASC_NODE = 73.7147
ARG_OF_PERICENTER = 228.2534
MEAN_ANOMALY   = 129.0385

EPHEMERIS_TYPE = 0
CLASSIFICATION_TYPE = U
NORAD_CAT_ID   = 67719
ELEMENT_SET_NO = 999
REV_AT_EPOCH   = 262
BSTAR          = .35316214E-2
MEAN_MOTION_DOT = .142536E-2
MEAN_MOTION_DDOT = 0

CCSDS_OMM_VERS = 2.0
CREATION_DATE  = 
ORIGINATOR     = 

OBJECT_NAME    = CZ-2F DEB
OBJECT_ID      = 2026-024G
CENTER_NAME    = EARTH
REF_FRAME      = TEME
TIME_SYSTEM    = UTC
MEAN_ELEMENT_THEORY = SGP/SGP4

EPOCH          = 2026-02-26T20:55:25.712832
MEAN_MOTION    = 14.97569040
ECCENTRICITY   = .03336428
INCLINATION    = 49.8310
RA_OF_ASC_NODE = 74.2807
ARG_OF_PERICENTER = 224.4489
MEAN_ANOMALY   = 132.9235

EPHEMERIS_TYPE = 0
CLASSIFICATION_TYPE = U
NORAD_CAT_ID   = 67720
ELEMENT_SET_NO = 999
REV_AT_EPOCH   = 293
BSTAR          = .35584854E-2
MEAN_MOTION_DOT = .139861E-2
MEAN_MOTION_DDOT = 0

CCSDS_OMM_VERS = 2.0
CREATION_DATE  = 
ORIGINATOR     = 

OBJECT_NAME    = STARLINK-36772
OBJECT_ID      = 2026-026A
CENTER_NAME    = EARTH
REF_FRAME      = TEME
TIME_SYSTEM    = UTC
MEAN_ELEMENT_THEORY = SGP/SGP4

EPOCH          = 2026-02-11T18:04:34.000320
MEAN_MOTION    = 16.07750770
ECCENTRICITY   = .00034
INCLINATION    = 97.2800
RA_OF_ASC_NODE = 95.5280
ARG_OF_PERICENTER = 259.0800
MEAN_ANOMALY   = 81.2200

EPHEMERIS_TYPE = 0
CLASSIFICATION_TYPE = U
NORAD_CAT_ID   = 67721
ELEMENT_SET_NO = 999
REV_AT_EPOCH   = 1
BSTAR          = 0
MEAN_MOTION_DOT = -.725E-5
MEAN_MOTION_DDOT = .2293429E-5

